NORAD_CAT_ID,OBJECT_NAME,OBJECT_TYPE,EPOCH,MEAN_MOTION,ECCENTRICITY,INCLINATION,RA_OF_ASC_NODE,ARG_OF_PERICENTER,MEAN_ANOMALY,BSTAR,MEAN_MOTION_DOT,MEAN_MOTION_DDOT,TLE_LINE0,TLE_LINE1,TLE_LINE2,SEMIMAJOR_AXIS,PERIOD,APOGEE,PERIGEE,DECAYED
50841.0,STARLINK-3300,PAYLOAD,2023-12-19 21:53:42,15.08838305,0.0001552,53.2141,218.8412,102.5096,257.607,8.4807e-06,-1.53e-06,0.0,0 STARLINK-3300,1 50841U 22001AQ  23353.91229292 -.00000153  00000-0  84807-5 0  9997,2 50841  53.2141 218.8412 0001552 102.5096 257.6070 15.08838305107868,6917.886,95.438,540.824,538.677,0.0
50841.0,STARLINK-3300,PAYLOAD,2023-12-20 20:09:06,15.08840321,0.0001339,53.2149,214.6792,83.573,276.5414,8.4729e-05,1.061e-05,0.0,0 STARLINK-3300,1 50841U 22001AQ  23354.83965428  .00001061  00000-0  84729-4 0  9997,2 50841  53.2149 214.6792 0001339  83.5730 276.5414 15.08840321108007,6917.879,95.438,540.671,538.818,0.0
50841.0,STARLINK-3300,PAYLOAD,2023-12-22 19:50:40,15.08841576,0.0001502,53.215,205.7573,98.2297,261.8866,7.5098e-05,9.07e-06,0.0,0 STARLINK-3300,1 50841U 22001AQ  23356.82685444  .00000907  00000-0  75098-4 0  9992,2 50841  53.2150 205.7573 0001502  98.2297 261.8866 15.08841576109608,6917.876,95.437,540.78,538.702,0.0
50841.0,STARLINK-3300,PAYLOAD,2023-12-23 13:19:54,15.08839726,0.0001504,53.2148,202.4889,102.7034,257.4126,7.2044e-05,8.59e-06,0.0,0 STARLINK-3300,1 50841U 22001AQ  23357.55549571  .00000859  00000-0  72044-4 0  9997,2 50841  53.2148 202.4889 0001504 102.7034 257.4126 15.08839726108413,6917.881,95.438,540.787,538.706,0.0
50841.0,STARLINK-3300,PAYLOAD,2023-12-23 19:41:27,15.08838734,0.0001373,53.2152,201.298,93.7628,266.3521,7.3617e-05,8.84e-06,0.0,0 STARLINK-3300,1 50841U 22001AQ  23357.82045937  .00000884  00000-0  73617-4 0  9999,2 50841  53.2152 201.2980 0001373  93.7628 266.3521 15.08838734109753,6917.884,95.438,540.699,538.799,0.0
50841.0,STARLINK-3300,PAYLOAD,2023-12-23 21:16:50,15.08838974,0.0001374,53.2153,201.001,84.1461,275.9687,7.3409e-05,8.81e-06,0.0,0 STARLINK-3300,1 50841U 22001AQ  23357.88669975  .00000881  00000-0  73409-4 0  9995,2 50841  53.2153 201.0010 0001374  84.1461 275.9687 15.08838974108468,6917.884,95.438,540.699,538.798,0.0
50841.0,STARLINK-3300,PAYLOAD,2023-12-24 13:10:42,15.08840884,0.0001379,53.2153,198.0273,83.9594,276.1555,9.1713e-05,1.172e-05,0.0,0 STARLINK-3300,1 50841U 22001AQ  23358.54909833  .00001172  00000-0  91713-4 0  9991,2 50841  53.2153 198.0273 0001379  83.9594 276.1555 15.08840884108564,6917.878,95.437,540.697,538.789,0.0
50841.0,STARLINK-3300,PAYLOAD,2023-12-24 21:07:37,15.08846233,0.0001374,53.2153,196.541,84.5895,275.5253,0.0001278,1.747e-05,0.0,0 STARLINK-3300,1 50841U 22001AQ  23358.88029380  .00001747  00000-0  12780-3 0  9992,2 50841  53.2153 196.5410 0001374  84.5895 275.5253 15.08846233108614,6917.861,95.437,540.677,538.776,0.0
50841.0,STARLINK-3300,PAYLOAD,2023-12-25 19:23:01,15.08839254,0.0001359,53.2151,192.3778,86.6462,273.4685,8.1614e-05,1.011e-05,0.0,0 STARLINK-3300,1 50841U 22001AQ  23359.80765861  .00001011  00000-0  81614-4 0  9993,2 50841  53.2151 192.3778 0001359  86.6462 273.4685 15.08839254110051,6917.883,95.438,540.688,538.808,0.0
50841.0,STARLINK-3300,PAYLOAD,2023-12-25 22:33:47,15.08842197,0.0001355,53.2152,191.7827,89.4508,270.664,9.7794e-05,1.269e-05,0.0,0 STARLINK-3300,1 50841U 22001AQ  23359.94013593  .00001269  00000-0  97794-4 0  9997,2 50841  53.2152 191.7827 0001355  89.4508 270.6640 15.08842197108774,6917.874,95.437,540.676,538.801,0.0
50841.0,STARLINK-3300,PAYLOAD,2023-12-26 19:13:48,15.0884536,0.0001393,53.2153,187.9164,89.872,270.2432,4.3707e-05,4.08e-06,0.0,0 STARLINK-3300,1 50841U 22001AQ  23360.80125386  .00000408  00000-0  43707-4 0  9997,2 50841  53.2153 187.9164 0001393  89.8720 270.2432 15.08845360108903,6917.864,95.437,540.693,538.765,0.0
50841.0,STARLINK-3300,PAYLOAD,2023-12-27 17:29:12,15.08841492,0.0001413,53.216,183.7509,92.8559,267.2594,6.342e-05,7.22e-06,0.0,0 STARLINK-3300,1 50841U 22001AQ  23361.72861467  .00000722  00000-0  63420-4 0  9999,2 50841  53.2160 183.7509 0001413  92.8559 267.2594 15.08841492110343,6917.876,95.437,540.718,538.763,0.0
50841.0,STARLINK-3300,PAYLOAD,2023-12-27 22:15:21,15.0884003,0.0001411,53.2159,182.8596,90.6493,269.4661,4.2863e-05,3.94e-06,0.0,0 STARLINK-3300,1 50841U 22001AQ  23361.92733572  .00000394  00000-0  42863-4 0  9999,2 50841  53.2159 182.8596 0001411  90.6493 269.4661 15.08840030109072,6917.88,95.438,540.721,538.769,0.0
50841.0,STARLINK-3300,PAYLOAD,2023-12-28 12:33:50,15.08838419,0.0001469,53.2164,180.1831,97.6407,262.4752,2.7079e-05,1.43e-06,0.0,0 STARLINK-3300,1 50841U 22001AQ  23362.52349724  .00000143  00000-0  27079-4 0  9992,2 50841  53.2164 180.1831 0001469  97.6407 262.4752 15.08838419109168,6917.885,95.438,540.766,538.734,0.0
50841.0,STARLINK-3300,PAYLOAD,2023-12-28 18:55:22,15.08839335,0.0001438,53.2164,178.9933,101.6768,258.4386,2.3549e-05,8.7e-07,0.0,0 STARLINK-3300,1 50841U 22001AQ  23362.78845626  .00000087  00000-0  23549-4 0  9997,2 50841  53.2164 178.9933 0001438 101.6768 258.4386 15.08839335110504,6917.882,95.438,540.742,538.753,0.0
50841.0,STARLINK-3300,PAYLOAD,2023-12-29 12:24:37,15.08835572,0.0001398,53.2164,175.7221,94.5348,265.5804,3.7211e-05,3.04e-06,0.0,0 STARLINK-3300,1 50841U 22001AQ  23363.51709926  .00000304  00000-0  37211-4 0  9994,2 50841  53.2164 175.7221 0001398  94.5348 265.5804 15.08835572109318,6917.894,95.438,540.726,538.792,0.0
50841.0,STARLINK-3300,PAYLOAD,2023-12-29 18:46:09,15.08832511,0.0001216,53.2159,174.5334,82.0081,278.1049,0.000101,1.32e-05,0.0,0 STARLINK-3300,1 50841U 22001AQ  23363.78205947  .00001320  00000-0  10100-3 0  9993,2 50841  53.2159 174.5334 0001216  82.0081 278.1049 15.08832511109354,6917.903,95.438,540.609,538.927,0.0
50841.0,STARLINK-3300,PAYLOAD,2023-12-30 12:15:24,15.08837325,0.0001315,53.2161,171.2629,93.8145,266.2997,4.4914e-05,4.27e-06,0.0,0 STARLINK-3300,1 50841U 22001AQ  23364.51069954  .00000427  00000-0  44914-4 0  9999,2 50841  53.2161 171.2629 0001315  93.8145 266.2997 15.08837325110764,6917.889,95.438,540.663,538.844,0.0
50841.0,STARLINK-3300,PAYLOAD,2023-12-30 21:47:43,15.08838842,0.0001308,53.2159,169.4787,89.4332,270.681,5.0131e-05,5.1e-06,0.0,0 STARLINK-3300,1 50841U 22001AQ  23364.90813883  .00000510  00000-0  50131-4 0  9991,2 50841  53.2159 169.4787 0001308  89.4332 270.6810 15.08838842109526,6917.884,95.438,540.654,538.844,0.0
50841.0,STARLINK-3300,PAYLOAD,2023-12-31 10:30:48,15.0887202,0.0001229,53.2162,167.0997,98.5063,261.6069,-0.00044662,-7.395e-05,0.0,0 STARLINK-3300,1 50841U 22001AQ  23365.43806071 -.00007395  00000-0 -44662-3 0  9992,2 50841  53.2162 167.0997 0001229  98.5063 261.6069 15.08872020110907,6917.783,95.436,540.498,538.797,0.0
50841.0,STARLINK-3300,PAYLOAD,2023-12-31 18:27:44,15.08838156,0.0001246,53.2159,165.6129,90.9472,269.1662,9.858e-06,-1.31e-06,0.0,0 STARLINK-3300,1 50841U 22001AQ  23365.76926267 -.00000131  00000-0  98580-5 0  9998,2 50841  53.2159 165.6129 0001246  90.9472 269.1662 15.08838156109657,6917.886,95.438,540.613,538.889,0.0
50841.0,STARLINK-3300,PAYLOAD,2024-01-01 10:21:35,15.08839383,0.0001273,53.2158,162.639,88.6576,271.4562,3.7879e-05,3.15e-06,0.0,0 STARLINK-3300,1 50841U 22001AQ  24001.43166202  .00000315  00000-0  37879-4 0  9991,2 50841  53.2158 162.6390 0001273  88.6576 271.4562 15.08839383109751,6917.882,95.438,540.628,538.867,0.0
50841.0,STARLINK-3300,PAYLOAD,2024-01-01 18:18:30,15.08845039,0.0001268,53.2159,161.1528,88.2724,271.8413,7.7716e-05,9.49e-06,0.0,0 STARLINK-3300,1 50841U 22001AQ  24001.76285652  .00000949  00000-0  77716-4 0  9995,2 50841  53.2159 161.1528 0001268  88.2724 271.8413 15.08845039111100,6917.865,95.437,540.607,538.853,0.0
50841.0,STARLINK-3300,PAYLOAD,2024-01-02 10:12:22,15.0883957,0.0001421,53.2165,158.1807,75.5371,284.5779,7.2858e-05,8.72e-06,0.0,0 STARLINK-3300,1 50841U 22001AQ  24002.42526069  .00000872  00000-0  72858-4 0  9996,2 50841  53.2165 158.1807 0001421  75.5371 284.5779 15.08839570111201,6917.882,95.438,540.73,538.764,0.0
50841.0,STARLINK-3300,PAYLOAD,2024-01-02 16:33:55,15.08840595,0.0001444,53.2166,156.9912,74.2397,285.8754,7.0863e-05,8.4e-06,0.0,0 STARLINK-3300,1 50841U 22001AQ  24002.69022019  .00000840  00000-0  70863-4 0  9990,2 50841  53.2166 156.9912 0001444  74.2397 285.8754 15.08840595109948,6917.879,95.438,540.743,538.745,0.0
50841.0,STARLINK-3300,PAYLOAD,2024-01-03 13:13:56,15.08836767,0.0001401,53.2168,153.1259,77.0093,283.1055,-3.4871e-05,-8.43e-06,0.0,0 STARLINK-3300,1 50841U 22001AQ  24003.55134611 -.00000843  00000-0 -34871-4 0  9992,2 50841  53.2168 153.1259 0001401  77.0093 283.1055 15.08836767110077,6917.89,95.438,540.724,538.786,0.0
50841.0,STARLINK-3300,PAYLOAD,2024-01-03 16:24:42,15.08837249,0.0001383,53.2168,152.5311,78.5992,281.5156,-3.1846e-05,-7.95e-06,0.0,0 STARLINK-3300,1 50841U 22001AQ  24003.68382565 -.00000795  00000-0 -31846-4 0  9994,2 50841  53.2168 152.5311 0001383  78.5992 281.5156 15.08837249111398,6917.889,95.438,540.711,538.797,0.0
50841.0,STARLINK-3300,PAYLOAD,2024-01-04 14:40:06,15.08836473,0.0001337,53.2171,148.3681,88.1415,271.973,9.9807e-06,-1.29e-06,0.0,0 STARLINK-3300,1 50841U 22001AQ  24004.61118544 -.00000129  00000-0  99807-5 0  9994,2 50841  53.2171 148.3681 0001337  88.1415 271.9730 15.08836473110232,6917.891,95.438,540.681,538.831,0.0
50841.0,STARLINK-3300,PAYLOAD,2024-01-05 12:55:30,15.08833706,0.0001298,53.2166,144.2029,82.8322,277.2818,3.336e-05,2.43e-06,0.0,0 STARLINK-3300,1 50841U 22001AQ  24005.53854945  .00000243  00000-0  33360-4 0  9995,2 50841  53.2166 144.2029 0001298  82.8322 277.2818 15.08833706111672,6917.9,95.438,540.663,538.867,0.0
50841.0,STARLINK-3300,PAYLOAD,2024-01-05 14:30:53,15.08833957,0.0001308,53.2167,143.9056,82.9219,277.1922,3.584e-05,2.82e-06,0.0,0 STARLINK-3300,1 50841U 22001AQ  24005.60478947  .00000282  00000-0  35840-4 0  9995,2 50841  53.2167 143.9056 0001308  82.9219 277.1922 15.08833957110387,6917.899,95.438,540.669,538.859,0.0
